{"type": "FeatureCollection", "features": [ {"type": "Feature", "properties": {"norad_id": 44622, "name": "GAOFEN-10R", "group": "resource", "lat": -40.07693931263088, "lon": 97.02366032959505, "alt_km": 632.310148323465, "timestamp": "2025-12-02T08:59:32.377359+00:00", "meta": {"OBJECT_NAME": "GAOFEN-10R", "OBJECT_ID": "2019-066A", "EPOCH": "2025-12-02T04:45:44.707104", "MEAN_MOTION": 14.8273038, "ECCENTRICITY": 0.0008303, "INCLINATION": 98.0259, "RA_OF_ASC_NODE": 283.6649, "ARG_OF_PERICENTER": 70.5607, "MEAN_ANOMALY": 289.6502, "EPHEMERIS_TYPE": 0, "CLASSIFICATION_TYPE": "U", "NORAD_CAT_ID": 44622, "ELEMENT_SET_NO": 999, "REV_AT_EPOCH": 33318, "BSTAR": 0.0002731, "MEAN_MOTION_DOT": 2.152e-05, "MEAN_MOTION_DDOT": 0}, "tle": {"line1": "1 44622U 19066A   25336.19843411  .00002152  00000+0  27310-3 0  9995", "line2": "2 44622  98.0259 283.6649 0008303  70.5607 289.6502 14.82730380333186"}}, "geometry": {"type": "Point", "coordinates": [97.02366032959505, -40.07693931263088]}}, {"type": "Feature", "properties": {"norad_id": 44804, "name": "CARTOSAT-3", "group": "resource", "lat": 74.62136193348114, "lon": -115.45904883147665, "alt_km": 492.06415477937117, "timestamp": "2025-12-02T08:59:32.377370+00:00", "meta": {"OBJECT_NAME": "CARTOSAT-3", "OBJECT_ID": "2019-081A", "EPOCH": "2025-11-28T19:10:32.696256", "MEAN_MOTION": 15.19179285, "ECCENTRICITY": 0.00136919, "INCLINATION": 97.4604, "RA_OF_ASC_NODE": 32.557, "ARG_OF_PERICENTER": 130.907, "MEAN_ANOMALY": 229.3352, "EPHEMERIS_TYPE": 0, "CLASSIFICATION_TYPE": "U", "NORAD_CAT_ID": 44804, "ELEMENT_SET_NO": 999, "REV_AT_EPOCH": 33304, "BSTAR": 0.00011293309, "MEAN_MOTION_DOT": 2.312e-05, "MEAN_MOTION_DDOT": 0}, "tle": {"line1": "1 44804U 19081A   25332.79898954  .00002312  00000+0  11293-3 0  9999", "line2": "2 44804  97.4604  32.5570 0013691 130.9070 229.3352 15.19179285333041"}}, "geometry": {"type": "Point", "coordinates": [-115.45904883147665, 74.62136193348114]}}, {"type": "Feature", "properties": {"norad_id": 44819, "name": "GAOFEN-12 01", "group": "resource", "lat": -26.285415819382443, "lon": 159.039141576382, "alt_km": 633.1800522262783, "timestamp": "2025-12-02T08:59:32.377383+00:00", "meta": {"OBJECT_NAME": "GAOFEN-12 01", "OBJECT_ID": "2019-082A", "EPOCH": "2025-12-02T04:49:07.874112", "MEAN_MOTION": 14.80636883, "ECCENTRICITY": 0.0001322, "INCLINATION": 97.8129, "RA_OF_ASC_NODE": 342.7584, "ARG_OF_PERICENTER": 305.8856, "MEAN_ANOMALY": 54.2233, "EPHEMERIS_TYPE": 0, "CLASSIFICATION_TYPE": "U", "NORAD_CAT_ID": 44819, "ELEMENT_SET_NO": 999, "REV_AT_EPOCH": 32494, "BSTAR": 8.9925e-05, "MEAN_MOTION_DOT": 6.4e-06, "MEAN_MOTION_DDOT": 0}, "tle": {"line1": "1 44819U 19082A   25336.20078558  .00000640  00000+0  89925-4 0  9996", "line2": "2 44819  97.8129 342.7584 0001322 305.8856  54.2233 14.80636883324948"}}, "geometry": {"type": "Point", "coordinates": [159.039141576382, -26.285415819382443]}}, {"type": "Feature", "properties": {"norad_id": 44873, "name": "CSG-1", "group": "resource", "lat": -78.21702591945392, "lon": -63.75058603987763, "alt_km": 630.7856019499313, "timestamp": "2025-12-02T08:59:32.377393+00:00", "meta": {"OBJECT_NAME": "CSG-1", "OBJECT_ID": "2019-092A", "EPOCH": "2025-12-02T04:34:36.918912", "MEAN_MOTION": 14.82171769, "ECCENTRICITY": 0.0001381, "INCLINATION": 97.8806, "RA_OF_ASC_NODE": 157.6735, "ARG_OF_PERICENTER": 83.3772, "MEAN_ANOMALY": 276.7598, "EPHEMERIS_TYPE": 0, "CLASSIFICATION_TYPE": "U", "NORAD_CAT_ID": 44873, "ELEMENT_SET_NO": 999, "REV_AT_EPOCH": 32229, "BSTAR": 0.00010589, "MEAN_MOTION_DOT": 7.91e-06, "MEAN_MOTION_DDOT": 0}, "tle": {"line1": "1 44873U 19092A   25336.19070508  .00000791  00000+0  10589-3 0  9998", "line2": "2 44873  97.8806 157.6735 0001381  83.3772 276.7598 14.82171769322291"}}, "geometry": {"type": "Point", "coordinates": [-63.75058603987763, -78.21702591945392]}}, {"type": "Feature", "properties": {"norad_id": 46277, "name": "NEMO-HD", "group": "resource", "lat": 58.3274750760673, "lon": 23.743064487574102, "alt_km": 438.9465812129429, "timestamp": "2025-12-02T08:59:32.377404+00:00", "meta": {"OBJECT_NAME": "NEMO-HD", "OBJECT_ID": "2020-061F", "EPOCH": "2025-12-02T04:03:30.182112", "MEAN_MOTION": 15.39991532, "ECCENTRICITY": 0.0002372, "INCLINATION": 97.2235, "RA_OF_ASC_NODE": 35.4039, "ARG_OF_PERICENTER": 70.0198, "MEAN_ANOMALY": 290.1303, "EPHEMERIS_TYPE": 0, "CLASSIFICATION_TYPE": "U", "NORAD_CAT_ID": 46277, "ELEMENT_SET_NO": 999, "REV_AT_EPOCH": 29161, "BSTAR": 0.00032544, "MEAN_MOTION_DOT": 0.00012906, "MEAN_MOTION_DDOT": 0}, "tle": {"line1": "1 46277U 20061F   25336.16909933  .00012906  00000+0  32544-3 0  9992", "line2": "2 46277  97.2235  35.4039 0002372  70.0198 290.1303 15.39991532291613"}}, "geometry": {"type": "Point", "coordinates": [23.743064487574102, 58.3274750760673]}}, {"type": "Feature", "properties": {"norad_id": 46984, "name": "SENTINEL-6A", "group": "resource", "lat": -6.3210504941751395, "lon": 6.660043808385213, "alt_km": 1339.6142019080462, "timestamp": "2025-12-02T08:59:32.377414+00:00", "meta": {"OBJECT_NAME": "SENTINEL-6A", "OBJECT_ID": "2020-086A", "EPOCH": "2025-12-02T00:31:27.282720", "MEAN_MOTION": 12.8092996, "ECCENTRICITY": 0.0007731, "INCLINATION": 66.0388, "RA_OF_ASC_NODE": 184.5694, "ARG_OF_PERICENTER": 269.1438, "MEAN_ANOMALY": 90.8692, "EPHEMERIS_TYPE": 0, "CLASSIFICATION_TYPE": "U", "NORAD_CAT_ID": 46984, "ELEMENT_SET_NO": 999, "REV_AT_EPOCH": 23507, "BSTAR": 0.00011631, "MEAN_MOTION_DOT": -3.4e-07, "MEAN_MOTION_DDOT": 0}, "tle": {"line1": "1 46984U 20086A   25336.02184355 -.00000034  00000+0  11631-3 0  9996", "line2": "2 46984  66.0388 184.5694 0007731 269.1438  90.8692 12.80929960235079"}}, "geometry": {"type": "Point", "coordinates": [6.660043808385213, -6.3210504941751395]}}, {"type": "Feature", "properties": {"norad_id": 48079, "name": "GAOFEN-12 02", "group": "resource", "lat": -36.66166454176632, "lon": 144.4342647162233, "alt_km": 633.8362045852418, "timestamp": "2025-12-02T08:59:32.377425+00:00", "meta": {"OBJECT_NAME": "GAOFEN-12 02", "OBJECT_ID": "2021-026A", "EPOCH": "2025-12-02T04:46:18.679584", "MEAN_MOTION": 14.80654085, "ECCENTRICITY": 0.0003216, "INCLINATION": 97.9848, "RA_OF_ASC_NODE": 330.2564, "ARG_OF_PERICENTER": 122.251, "MEAN_ANOMALY": 237.9014, "EPHEMERIS_TYPE": 0, "CLASSIFICATION_TYPE": "U", "NORAD_CAT_ID": 48079, "ELEMENT_SET_NO": 999, "REV_AT_EPOCH": 25261, "BSTAR": 9.17e-05, "MEAN_MOTION_DOT": 6.52e-06, "MEAN_MOTION_DDOT": 0}, "tle": {"line1": "1 48079U 21026A   25336.19882731  .00000652  00000+0  91700-4 0  9990", "line2": "2 48079  97.9848 330.2564 0003216 122.2510 237.9014 14.80654085252616"}}, "geometry": {"type": "Point", "coordinates": [144.4342647162233, -36.66166454176632]}}, {"type": "Feature", "properties": {"norad_id": 48268, "name": "PLEIADES NEO 3", "group": "resource", "lat": -65.30415362583739, "lon": -148.59831604981989, "alt_km": 632.0110871774077, "timestamp": "2025-12-02T08:59:32.377437+00:00", "meta": {"OBJECT_NAME": "PLEIADES NEO 3", "OBJECT_ID": "2021-034A", "EPOCH": "2025-12-02T04:38:30.313824", "MEAN_MOTION": 14.81676504, "ECCENTRICITY": 0.0001214, "INCLINATION": 97.8948, "RA_OF_ASC_NODE": 48.7857, "ARG_OF_PERICENTER": 96.3611, "MEAN_ANOMALY": 263.774, "EPHEMERIS_TYPE": 0, "CLASSIFICATION_TYPE": "U", "NORAD_CAT_ID": 48268, "ELEMENT_SET_NO": 999, "REV_AT_EPOCH": 24848, "BSTAR": -9.2335e-07, "MEAN_MOTION_DOT": -5.9e-07, "MEAN_MOTION_DDOT": 0}, "tle": {"line1": "1 48268U 21034A   25336.19340641 -.00000059  00000+0 -92335-6 0  9998", "line2": "2 48268  97.8948  48.7857 0001214  96.3611 263.7740 14.81676504248485"}}, "geometry": {"type": "Point", "coordinates": [-148.59831604981989, -65.30415362583739]}}, {"type": "Feature", "properties": {"norad_id": 49070, "name": "PLEIADES NEO 4", "group": "resource", "lat": 65.24716649113971, "lon": 31.444338163855058, "alt_km": 616.8431178126093, "timestamp": "2025-12-02T08:59:32.377447+00:00", "meta": {"OBJECT_NAME": "PLEIADES NEO 4", "OBJECT_ID": "2021-073E", "EPOCH": "2025-12-01T19:43:38.054208", "MEAN_MOTION": 14.81672559, "ECCENTRICITY": 0.0001327, "INCLINATION": 97.8949, "RA_OF_ASC_NODE": 48.4151, "ARG_OF_PERICENTER": 92.6256, "MEAN_ANOMALY": 267.5109, "EPHEMERIS_TYPE": 0, "CLASSIFICATION_TYPE": "U", "NORAD_CAT_ID": 49070, "ELEMENT_SET_NO": 999, "REV_AT_EPOCH": 23214, "BSTAR": -1.3131e-06, "MEAN_MOTION_DOT": -6.2e-07, "MEAN_MOTION_DDOT": 0}, "tle": {"line1": "1 49070U 21073E   25335.82196822 -.00000062  00000+0 -13131-5 0  9992", "line2": "2 49070  97.8949  48.4151 0001327  92.6256 267.5109 14.81672559232144"}}, "geometry": {"type": "Point", "coordinates": [31.444338163855058, 65.24716649113971]}}, {"type": "Feature", "properties": {"norad_id": 49260, "name": "LANDSAT 9", "group": "resource", "lat": -78.58995561060905, "lon": 90.3127803312276, "alt_km": 710.6129562055012, "timestamp": "2025-12-02T08:59:32.377457+00:00", "meta": {"OBJECT_NAME": "LANDSAT 9", "OBJECT_ID": "2021-088A", "EPOCH": "2025-12-02T04:25:27.420960", "MEAN_MOTION": 14.57112183, "ECCENTRICITY": 0.0001087, "INCLINATION": 98.2105, "RA_OF_ASC_NODE": 44.4476, "ARG_OF_PERICENTER": 92.5129, "MEAN_ANOMALY": 267.6194, "EPHEMERIS_TYPE": 0, "CLASSIFICATION_TYPE": "U", "NORAD_CAT_ID": 49260, "ELEMENT_SET_NO": 999, "REV_AT_EPOCH": 22231, "BSTAR": 0.00013153, "MEAN_MOTION_DOT": 5.47e-06, "MEAN_MOTION_DDOT": 0}, "tle": {"line1": "1 49260U 21088A   25336.18434515  .00000547  00000+0  13153-3 0  9991", "line2": "2 49260  98.2105  44.4476 0001087  92.5129 267.6194 14.57112183222319"}}, "geometry": {"type": "Point", "coordinates": [90.3127803312276, -78.58995561060905]}}]}